FLOCK 4G-6              
1 62660U 25009BD  26068.71061311  .00012261  00000+0  45910-3 0  9991
2 62660  97.3980 150.7943 0002380 348.2637  11.8546 15.27432125121307
STARLINK-36129          
1 66874U 25281AC  26068.15523885  .00035237  00000+0  12841-2 0  9995
2 66874  43.0031 346.5022 0001675 285.5594  74.5073 15.27575623 16098
